NORAD_CAT_ID,OBJECT_NAME,OBJECT_TYPE,EPOCH,MEAN_MOTION,ECCENTRICITY,INCLINATION,RA_OF_ASC_NODE,ARG_OF_PERICENTER,MEAN_ANOMALY,BSTAR,MEAN_MOTION_DOT,MEAN_MOTION_DDOT,TLE_LINE0,TLE_LINE1,TLE_LINE2,SEMIMAJOR_AXIS,PERIOD,APOGEE,PERIGEE,DECAYED
55657.0,STARLINK-5328,PAYLOAD,2023-03-03 22:00:00,15.75170293,0.0003574,69.9998,110.1888,281.428,323.022,-0.0075691,-0.01027437,0.0,0 STARLINK-5328,1 55657U 23021AF  23062.91667824 -.01027437  00000-0 -75691-2 0  9998,2 55657  69.9998 110.1888 0003574 281.4280 323.0220 15.75170293  1307,6722.284,91.419,346.551,341.746,0.0
55657.0,STARLINK-5328,PAYLOAD,2023-03-04 10:00:01,15.74078745,0.0003484,70.0003,108.7739,280.0472,277.9071,-0.0075603,-0.00967422,0.0,0 STARLINK-5328,1 55657U 23021AF  23063.41668981 -.00967422  00000-0 -75603-2 0  9998,2 55657  70.0003 108.7739 0003484 280.0472 277.9071 15.74078745  2842,6725.391,91.482,349.599,344.913,0.0
55657.0,STARLINK-5328,PAYLOAD,2023-03-04 14:00:01,15.73741058,0.00037,69.9998,108.3028,277.7044,144.228,-0.0078492,-0.01003718,0.0,0 STARLINK-5328,1 55657U 23021AF  23063.58334491 -.01003718  00000-0 -78492-2 0  9991,2 55657  69.9998 108.3028 0003700 277.7044 144.2280 15.73741058  1309,6726.353,91.502,350.707,345.729,0.0
55657.0,STARLINK-5328,PAYLOAD,2023-03-04 22:00:00,15.7298997,0.0003266,69.994,107.3524,267.7924,241.6173,-0.0074475,-0.0091497,0.0,0 STARLINK-5328,1 55657U 23021AF  23063.91667824 -.00914970  00000-0 -74475-2 0  9994,2 55657  69.9940 107.3524 0003266 267.7924 241.6173 15.72989970  1308,6728.494,91.545,352.557,348.162,0.0
55657.0,STARLINK-5328,PAYLOAD,2023-03-05 08:00:01,15.72139515,0.0003631,69.9937,106.1766,270.8168,76.7975,-0.0083757,-0.01000263,0.0,0 STARLINK-5328,1 55657U 23021AF  23064.33335648 -.01000263  00000-0 -83757-2 0  9992,2 55657  69.9937 106.1766 0003631 270.8168  76.7975 15.72139515  2984,6730.92,91.595,355.229,350.341,0.0
55657.0,STARLINK-5328,PAYLOAD,2023-03-05 14:00:01,15.71606394,0.0003699,69.9932,105.4715,274.3096,47.4835,-0.0083681,-0.00979133,0.0,0 STARLINK-5328,1 55657U 23021AF  23064.58334491 -.00979133  00000-0 -83681-2 0  9990,2 55657  69.9932 105.4715 0003699 274.3096  47.4835 15.71606394  1306,6732.442,91.626,356.798,351.817,0.0
55657.0,STARLINK-5328,PAYLOAD,2023-03-05 22:00:00,15.70700472,0.0003137,69.9935,104.5324,265.6425,141.1744,-0.0061112,-0.00699127,0.0,0 STARLINK-5328,1 55657U 23021AF  23064.91667824 -.00699127  00000-0 -61112-2 0  9993,2 55657  69.9935 104.5324 0003137 265.6425 141.1744 15.70700472  1303,6735.031,91.679,359.009,354.783,0.0
55657.0,STARLINK-5328,PAYLOAD,2023-03-06 08:00:01,15.69968743,0.0003257,69.9945,103.3599,272.4002,329.2727,-0.00075396,-0.0009007,0.0,0 STARLINK-5328,1 55657U 23021AF  23065.33334491 -.00090070  00000-0 -75396-3 0  9993,2 55657  69.9945 103.3599 0003257 272.4002 329.2727 15.69968743  3144,6737.123,91.722,361.183,356.794,0.0
55657.0,STARLINK-5328,PAYLOAD,2023-03-06 22:00:00,15.69844684,0.0003191,69.9959,101.7192,266.497,31.0521,0.001133,0.00137824,0.0,0 STARLINK-5328,1 55657U 23021AF  23065.91667824  .00137824  00000-0  11330-2 0  9990,2 55657  69.9959 101.7192 0003191 266.4970  31.0521 15.69844684  1307,6737.478,91.729,361.493,357.193,0.0
55657.0,STARLINK-5328,PAYLOAD,2023-03-07 08:00:01,15.69906444,0.0003492,69.9975,100.5477,268.6482,223.0316,0.00025478,0.00030512,0.0,0 STARLINK-5328,1 55657U 23021AF  23066.33334491  .00030512  00000-0  25478-3 0  9993,2 55657  69.9975 100.5477 0003492 268.6482 223.0316 15.69906444  3304,6737.302,91.725,361.519,356.814,0.0
55657.0,STARLINK-5328,PAYLOAD,2023-03-07 22:00:00,15.69870625,0.0003583,69.9996,98.9068,260.1236,287.4371,0.00075958,0.00091926,0.0,0 STARLINK-5328,1 55657U 23021AF  23066.91667824  .00091926  00000-0  75958-3 0  9990,2 55657  69.9996  98.9068 0003583 260.1236 287.4371 15.69870625  1302,6737.404,91.727,361.683,356.855,0.0
55657.0,STARLINK-5328,PAYLOAD,2023-03-08 06:00:00,15.69917458,0.0003525,70.0005,97.9696,263.603,7.2575,-3.714e-05,-4.675e-05,0.0,0 STARLINK-5328,1 55657U 23021AF  23067.25001157 -.00004675  00000-0 -37140-4 0  9998,2 55657  70.0005  97.9696 0003525 263.6030   7.2575 15.69917458  3445,6737.27,91.725,361.51,356.76,0.0
55657.0,STARLINK-5328,PAYLOAD,2023-03-08 16:00:00,15.70012255,0.0003363,70.0003,96.7981,272.899,192.1202,-0.0013404,-0.00158954,0.0,0 STARLINK-5328,1 55657U 23021AF  23067.66667824 -.00158954  00000-0 -13404-2 0  9997,2 55657  70.0003  96.7981 0003363 272.8990 192.1202 15.70012255  3516,6736.999,91.719,361.13,356.598,0.0
55657.0,STARLINK-5328,PAYLOAD,2023-03-08 22:00:00,15.69856566,0.0003372,70.0006,96.0953,270.8375,166.742,0.00087752,0.00106351,0.0,0 STARLINK-5328,1 55657U 23021AF  23067.91667824  .00106351  00000-0  87752-3 0  9995,2 55657  70.0006  96.0953 0003372 270.8375 166.7420 15.69856566  1309,6737.444,91.728,361.581,357.038,0.0
55657.0,STARLINK-5328,PAYLOAD,2023-03-09 05:19:02,15.69914944,0.0003233,69.9985,95.2386,258.3851,101.6982,-4.6125e-05,-5.753e-05,0.0,0 STARLINK-5328,1 55657U 23021AF  23068.22155366 -.00005753  00000-0 -46125-4 0  9999,2 55657  69.9985  95.2386 0003233 258.3851 101.6982 15.69914944  3598,6737.277,91.725,361.321,356.964,0.0
55657.0,STARLINK-5328,PAYLOAD,2023-03-09 19:04:47,15.69955226,0.0003412,70.0004,93.6258,275.4548,84.6258,0.00036515,0.00043981,0.0,0 STARLINK-5328,1 55657U 23021AF  23068.79499970  .00043981  00000-0  36515-3 0  9997,2 55657  70.0004  93.6258 0003412 275.4548  84.6258 15.69955226  3689,6737.162,91.722,361.326,356.728,0.0
55657.0,STARLINK-5328,PAYLOAD,2023-03-10 04:15:19,15.69918713,0.0003601,70.0005,92.5511,271.6432,88.4351,7.4803e-05,8.789e-05,0.0,0 STARLINK-5328,1 55657U 23021AF  23069.17730537  .00008789  00000-0  74803-4 0  9997,2 55657  70.0005  92.5511 0003601 271.6432  88.4351 15.69918713  3743,6737.267,91.724,361.558,356.705,0.0
55657.0,STARLINK-5328,PAYLOAD,2023-03-10 18:01:05,15.69921139,0.0003448,70.0006,90.9388,266.397,93.6832,4.0085e-05,4.609e-05,0.0,0 STARLINK-5328,1 55657U 23021AF  23069.75075649  .00004609  00000-0  40085-4 0  9999,2 55657  70.0006  90.9388 0003448 266.3970  93.6832 15.69921139  4148,6737.26,91.724,361.448,356.802,0.0
55657.0,STARLINK-5328,PAYLOAD,2023-03-11 03:11:36,15.69922143,0.0003387,70.0008,89.8633,269.726,90.3547,6.3536e-05,7.433e-05,0.0,0 STARLINK-5328,1 55657U 23021AF  23070.13305913  .00007433  00000-0  63536-4 0  9997,2 55657  70.0008  89.8633 0003387 269.7260  90.3547 15.69922143  3895,6737.257,91.724,361.404,356.84,0.0
55657.0,STARLINK-5328,PAYLOAD,2023-03-11 12:22:07,15.6992553,0.0003048,70.0009,88.7891,277.7032,82.3817,4.386e-05,5.064e-05,0.0,0 STARLINK-5328,1 55657U 23021AF  23070.51535898  .00005064  00000-0  43860-4 0  9992,2 55657  70.0009  88.7891 0003048 277.7032  82.3817 15.69925530  4266,6737.247,91.724,361.166,357.059,0.0
55657.0,STARLINK-5328,PAYLOAD,2023-03-12 02:07:53,15.69923668,0.0003319,70.0011,87.1767,268.5235,91.558,2.9376e-05,3.321e-05,0.0,0 STARLINK-5328,1 55657U 23021AF  23071.08881046  .00003321  00000-0  29376-4 0  9994,2 55657  70.0011  87.1767 0003319 268.5235  91.5580 15.69923668  4043,6737.252,91.724,361.353,356.881,0.0
55657.0,STARLINK-5328,PAYLOAD,2023-03-12 03:39:38,15.69926484,0.0003222,70.0014,86.9971,269.7042,90.3784,4.0954e-05,4.715e-05,0.0,0 STARLINK-5328,1 55657U 23021AF  23071.15252675  .00004715  00000-0  40954-4 0  9995,2 55657  70.0014  86.9971 0003222 269.7042  90.3784 15.69926484  4369,6737.244,91.724,361.28,356.939,0.0
55657.0,STARLINK-5328,PAYLOAD,2023-03-12 12:50:08,15.69946309,0.0003587,70.0011,85.9229,277.4153,82.6635,9.4375e-05,0.00011161,0.0,0 STARLINK-5328,1 55657U 23021AF  23071.53482012  .00011161  00000-0  94375-4 0  9996,2 55657  70.0011  85.9229 0003587 277.4153  82.6635 15.69946309  4114,6737.188,91.723,361.469,356.636,0.0
55657.0,STARLINK-5328,PAYLOAD,2023-03-13 10:14:41,15.69921898,0.0002992,70.0021,83.4158,319.281,40.8162,2.7822e-05,3.134e-05,0.0,0 STARLINK-5328,1 55657U 23021AF  23072.42686916  .00003134  00000-0  27822-4 0  9998,2 55657  70.0021  83.4158 0002992 319.2810  40.8162 15.69921898  4255,6737.257,91.724,361.138,357.107,0.0
55657.0,STARLINK-5328,PAYLOAD,2023-03-14 10:42:42,15.69933337,0.0003349,70.0026,80.5495,281.5434,78.5386,5.7168e-05,6.669e-05,0.0,0 STARLINK-5328,1 55657U 23021AF  23073.44632638  .00006669  00000-0  57168-4 0  9995,2 55657  70.0026  80.5495 0003349 281.5434  78.5386 15.69933337  4417,6737.225,91.724,361.346,356.833,0.0
55657.0,STARLINK-5328,PAYLOAD,2023-03-15 03:31:58,15.69928821,0.0003473,70.0012,78.5803,266.5193,93.5606,1.5714e-05,1.677e-05,0.0,0 STARLINK-5328,1 55657U 23021AF  23074.14720784  .00001677  00000-0  15714-4 0  9998,2 55657  70.0012  78.5803 0003473 266.5193  93.5606 15.69928821  4521,6737.238,91.724,361.442,356.763,0.0
55657.0,STARLINK-5328,PAYLOAD,2023-03-15 12:42:29,15.69924139,0.0003691,69.9996,77.5054,273.1436,86.9337,9.9849e-06,9.88e-06,0.0,0 STARLINK-5328,1 55657U 23021AF  23074.52950988  .00000988  00000-0  99849-5 0  9997,2 55657  69.9996  77.5054 0003691 273.1436  86.9337 15.69924139  4897,6737.251,91.724,361.603,356.629,0.0
55657.0,STARLINK-5328,PAYLOAD,2023-03-16 02:28:15,15.69920683,0.0003417,70.0004,75.8924,266.8629,93.2176,-1.7563e-05,-2.324e-05,0.0,0 STARLINK-5328,1 55657U 23021AF  23075.10296285 -.00002324  00000-0 -17563-4 0  9995,2 55657  70.0004  75.8924 0003417 266.8629  93.2176 15.69920683  4674,6737.261,91.724,361.428,356.824,0.0
55657.0,STARLINK-5328,PAYLOAD,2023-03-16 11:38:45,15.69940059,0.0003262,69.9987,74.8181,265.0018,95.0805,1.5419e-05,1.643e-05,0.0,0 STARLINK-5328,1 55657U 23021AF  23075.48525186  .00001643  00000-0  15419-4 0  9990,2 55657  69.9987  74.8181 0003262 265.0018  95.0805 15.69940059  4731,6737.205,91.723,361.268,356.873,0.0
55657.0,STARLINK-5328,PAYLOAD,2023-03-16 23:52:48,15.69913696,0.000323,69.9983,73.3828,260.6085,99.4745,4.9761e-06,3.85e-06,0.0,0 STARLINK-5328,1 55657U 23021AF  23075.99500306  .00000385  00000-0  49761-5 0  9993,2 55657  69.9983  73.3828 0003230 260.6085  99.4745 15.69913696  4816,6737.281,91.725,361.322,356.97,0.0
